CCSDS_OMM_VERS = 2.0
CREATION_DATE  = 
ORIGINATOR     = 

OBJECT_NAME    = STARLINK-35339
OBJECT_ID      = 2025-232Z
CENTER_NAME    = EARTH
REF_FRAME      = TEME
TIME_SYSTEM    = UTC
MEAN_ELEMENT_THEORY = SGP/SGP4

EPOCH          = 2025-10-26T12:00:00.998784
MEAN_MOTION    = 15.84539865
ECCENTRICITY   = .0001171
INCLINATION    = 53.1549
RA_OF_ASC_NODE = 12.2132
ARG_OF_PERICENTER = 73.9769
MEAN_ANOMALY   = 173.3992

EPHEMERIS_TYPE = 0
CLASSIFICATION_TYPE = U
NORAD_CAT_ID   = 66028
ELEMENT_SET_NO = 999
REV_AT_EPOCH   = 189
BSTAR          = -.83524E-2
MEAN_MOTION_DOT = -.1700365E-1
MEAN_MOTION_DDOT = 0

CCSDS_OMM_VERS = 2.0
CREATION_DATE  = 
ORIGINATOR     = 

OBJECT_NAME    = STARLINK-35399
OBJECT_ID      = 2025-232AA
CENTER_NAME    = EARTH
REF_FRAME      = TEME
TIME_SYSTEM    = UTC
MEAN_ELEMENT_THEORY = SGP/SGP4

EPOCH          = 2025-10-26T12:00:00.998784
MEAN_MOTION    = 15.84534237
ECCENTRICITY   = .0001039
INCLINATION    = 53.1550
RA_OF_ASC_NODE = 12.2085
ARG_OF_PERICENTER = 76.8940
MEAN_ANOMALY   = 172.8372

EPHEMERIS_TYPE = 0
CLASSIFICATION_TYPE = U
NORAD_CAT_ID   = 66029
ELEMENT_SET_NO = 999
REV_AT_EPOCH   = 189
BSTAR          = -.83975E-2
MEAN_MOTION_DOT = -.1707743E-1
MEAN_MOTION_DDOT = 0

CCSDS_OMM_VERS = 2.0
CREATION_DATE  = 
ORIGINATOR     = 

OBJECT_NAME    = STARLINK-35431
OBJECT_ID      = 2025-232AB
CENTER_NAME    = EARTH
REF_FRAME      = TEME
TIME_SYSTEM    = UTC
MEAN_ELEMENT_THEORY = SGP/SGP4

EPOCH          = 2025-10-26T12:00:00.998784
MEAN_MOTION    = 15.84525234
ECCENTRICITY   = .000117
INCLINATION    = 53.1545
RA_OF_ASC_NODE = 12.2028
ARG_OF_PERICENTER = 70.8082
MEAN_ANOMALY   = 181.3968

EPHEMERIS_TYPE = 0
CLASSIFICATION_TYPE = U
NORAD_CAT_ID   = 66030
ELEMENT_SET_NO = 999
REV_AT_EPOCH   = 189
BSTAR          = -.84872E-2
MEAN_MOTION_DOT = -.1722929E-1
MEAN_MOTION_DDOT = 0

CCSDS_OMM_VERS = 2.0
CREATION_DATE  = 
ORIGINATOR     = 

OBJECT_NAME    = STARLINK-35326
OBJECT_ID      = 2025-232AC
CENTER_NAME    = EARTH
REF_FRAME      = TEME
TIME_SYSTEM    = UTC
MEAN_ELEMENT_THEORY = SGP/SGP4

EPOCH          = 2025-10-26T12:00:00.998784
MEAN_MOTION    = 15.84524163
ECCENTRICITY   = .0001021
INCLINATION    = 53.1550
RA_OF_ASC_NODE = 12.1991
ARG_OF_PERICENTER = 76.5202
MEAN_ANOMALY   = 177.8212

EPHEMERIS_TYPE = 0
CLASSIFICATION_TYPE = U
NORAD_CAT_ID   = 66031
ELEMENT_SET_NO = 999
REV_AT_EPOCH   = 195
BSTAR          = -.84179E-2
MEAN_MOTION_DOT = -.171058E-1
MEAN_MOTION_DDOT = 0

CCSDS_OMM_VERS = 2.0
CREATION_DATE  = 
ORIGINATOR     = 

OBJECT_NAME    = STARLINK-35311
OBJECT_ID      = 2025-232AD
CENTER_NAME    = EARTH
REF_FRAME      = TEME
TIME_SYSTEM    = UTC
MEAN_ELEMENT_THEORY = SGP/SGP4

EPOCH          = 2025-10-26T12:00:00.998784
MEAN_MOTION    = 15.84519392
ECCENTRICITY   = .0001105
INCLINATION    = 53.1546
RA_OF_ASC_NODE = 12.1936
ARG_OF_PERICENTER = 72.5583
MEAN_ANOMALY   = 184.2999

EPHEMERIS_TYPE = 0
CLASSIFICATION_TYPE = U
NORAD_CAT_ID   = 66032
ELEMENT_SET_NO = 999
REV_AT_EPOCH   = 195
BSTAR          = -.85662E-2
MEAN_MOTION_DOT = -.1736209E-1
MEAN_MOTION_DDOT = 0

CCSDS_OMM_VERS = 2.0
CREATION_DATE  = 
ORIGINATOR     = 

OBJECT_NAME    = 2025-234A
OBJECT_ID      = 2025-234A
CENTER_NAME    = EARTH
REF_FRAME      = TEME
TIME_SYSTEM    = UTC
MEAN_ELEMENT_THEORY = SGP/SGP4

EPOCH          = 2025-10-26T11:47:17.888064
MEAN_MOTION    = 15.21777529
ECCENTRICITY   = .0014298
INCLINATION    = 97.4619
RA_OF_ASC_NODE = 5.1034
ARG_OF_PERICENTER = 261.0547
MEAN_ANOMALY   = 98.9070

EPHEMERIS_TYPE = 0
CLASSIFICATION_TYPE = U
NORAD_CAT_ID   = 66053
ELEMENT_SET_NO = 999
REV_AT_EPOCH   = 112
BSTAR          = .12864E-2
MEAN_MOTION_DOT = .2928E-3
MEAN_MOTION_DDOT = 0

CCSDS_OMM_VERS = 2.0
CREATION_DATE  = 
ORIGINATOR     = 

OBJECT_NAME    = 2025-234B
OBJECT_ID      = 2025-234B
CENTER_NAME    = EARTH
REF_FRAME      = TEME
TIME_SYSTEM    = UTC
MEAN_ELEMENT_THEORY = SGP/SGP4

EPOCH          = 2025-10-23T14:21:39.974976
MEAN_MOTION    = 15.21282678
ECCENTRICITY   = .0014619
INCLINATION    = 97.5057
RA_OF_ASC_NODE = 2.2525
ARG_OF_PERICENTER = 268.7380
MEAN_ANOMALY   = 91.2181

EPHEMERIS_TYPE = 0
CLASSIFICATION_TYPE = U
NORAD_CAT_ID   = 66054
ELEMENT_SET_NO = 999
REV_AT_EPOCH   = 68
BSTAR          = .40867E-3
MEAN_MOTION_DOT = .9095E-4
MEAN_MOTION_DDOT = 0

CCSDS_OMM_VERS = 2.0
CREATION_DATE  = 
ORIGINATOR     = 

OBJECT_NAME    = 2025-234C
OBJECT_ID      = 2025-234C
CENTER_NAME    = EARTH
REF_FRAME      = TEME
TIME_SYSTEM    = UTC
MEAN_ELEMENT_THEORY = SGP/SGP4

EPOCH          = 2025-10-25T18:27:59.611680
MEAN_MOTION    = 15.21202189
ECCENTRICITY   = .00142284
INCLINATION    = 97.4573
RA_OF_ASC_NODE = 4.3806
ARG_OF_PERICENTER = 259.3151
MEAN_ANOMALY   = 100.6483

EPHEMERIS_TYPE = 0
CLASSIFICATION_TYPE = U
NORAD_CAT_ID   = 66055
ELEMENT_SET_NO = 999
REV_AT_EPOCH   = 101
BSTAR          = .32205033E-3
MEAN_MOTION_DOT = .7133E-4
MEAN_MOTION_DDOT = 0

CCSDS_OMM_VERS = 2.0
CREATION_DATE  = 
ORIGINATOR     = 

OBJECT_NAME    = 2025-234D
OBJECT_ID      = 2025-234D
CENTER_NAME    = EARTH
REF_FRAME      = TEME
TIME_SYSTEM    = UTC
MEAN_ELEMENT_THEORY = SGP/SGP4

EPOCH          = 2025-10-25T08:59:43.425024
MEAN_MOTION    = 15.21279805
ECCENTRICITY   = .00142638
INCLINATION    = 97.4550
RA_OF_ASC_NODE = 3.9880
ARG_OF_PERICENTER = 258.7901
MEAN_ANOMALY   = 101.1731

EPHEMERIS_TYPE = 0
CLASSIFICATION_TYPE = U
NORAD_CAT_ID   = 66056
ELEMENT_SET_NO = 999
REV_AT_EPOCH   = 94
BSTAR          = .97766064E-3
MEAN_MOTION_DOT = .21892E-3
MEAN_MOTION_DDOT = 0

CCSDS_OMM_VERS = 2.0
CREATION_DATE  = 
ORIGINATOR     = 

OBJECT_NAME    = 2025-234E
OBJECT_ID      = 2025-234E
CENTER_NAME    = EARTH
REF_FRAME      = TEME
TIME_SYSTEM    = UTC
MEAN_ELEMENT_THEORY = SGP/SGP4

EPOCH          = 2025-10-22T03:39:05.023008
MEAN_MOTION    = 15.21126112
ECCENTRICITY   = .00221527
INCLINATION    = 97.5441
RA_OF_ASC_NODE = 0.7365
ARG_OF_PERICENTER = 241.6098
MEAN_ANOMALY   = 118.2904

EPHEMERIS_TYPE = 0
CLASSIFICATION_TYPE = U
NORAD_CAT_ID   = 66057
ELEMENT_SET_NO = 999
REV_AT_EPOCH   = 46
BSTAR          = .33848292E-3
MEAN_MOTION_DOT = .7512E-4
MEAN_MOTION_DDOT = 0

CCSDS_OMM_VERS = 2.0
CREATION_DATE  = 
ORIGINATOR     = 

OBJECT_NAME    = TJS-20
OBJECT_ID      = 2025-238A
CENTER_NAME    = EARTH
REF_FRAME      = TEME
TIME_SYSTEM    = UTC
MEAN_ELEMENT_THEORY = SGP/SGP4

EPOCH          = 2025-10-24T00:30:38.644704
MEAN_MOTION    = 1.72601617
ECCENTRICITY   = .77630572
INCLINATION    = 16.4249
RA_OF_ASC_NODE = 273.2021
ARG_OF_PERICENTER = 165.3209
MEAN_ANOMALY   = 248.2978

EPHEMERIS_TYPE = 0
CLASSIFICATION_TYPE = U
NORAD_CAT_ID   = 66142
ELEMENT_SET_NO = 999
REV_AT_EPOCH   = 2
BSTAR          = .89265633E-3
MEAN_MOTION_DOT = .7775E-4
MEAN_MOTION_DDOT = .152554E-5

CCSDS_OMM_VERS = 2.0
CREATION_DATE  = 
ORIGINATOR     = 

OBJECT_NAME    = CZ-5 R/B
OBJECT_ID      = 2025-238B
CENTER_NAME    = EARTH
REF_FRAME      = TEME
TIME_SYSTEM    = UTC
MEAN_ELEMENT_THEORY = SGP/SGP4

EPOCH          = 2025-10-26T01:10:25.050720
MEAN_MOTION    = 1.92804715
ECCENTRICITY   = .75966176
INCLINATION    = 16.4195
RA_OF_ASC_NODE = 272.5568
ARG_OF_PERICENTER = 165.5501
MEAN_ANOMALY   = 244.5316

EPHEMERIS_TYPE = 0
CLASSIFICATION_TYPE = U
NORAD_CAT_ID   = 66143
ELEMENT_SET_NO = 999
REV_AT_EPOCH   = 6
BSTAR          = .11116107E-2
MEAN_MOTION_DOT = .20888E-3
MEAN_MOTION_DDOT = .995014E-6

