STARLINK-35339          
1 66028U 25232Z   25299.50001156 -.01700365  00000+0 -83524-2 0  9998
2 66028  53.1549  12.2132 0001171  73.9769 173.3992 15.84539865  1899
STARLINK-35399          
1 66029U 25232AA  25299.50001156 -.01707743  00000+0 -83975-2 0  9996
2 66029  53.1550  12.2085 0001039  76.8940 172.8372 15.84534237  1899
STARLINK-35431          
1 66030U 25232AB  25299.50001156 -.01722929  00000+0 -84872-2 0  9998
2 66030  53.1545  12.2028 0001170  70.8082 181.3968 15.84525234  1892
STARLINK-35326          
1 66031U 25232AC  25299.50001156 -.01710580  00000+0 -84179-2 0  9999
2 66031  53.1550  12.1991 0001021  76.5202 177.8212 15.84524163  1958
STARLINK-35311          
1 66032U 25232AD  25299.50001156 -.01736209  00000+0 -85662-2 0  9994
2 66032  53.1546  12.1936 0001105  72.5583 184.2999 15.84519392  1956
2025-234A               
1 66053U 25234A   25299.49117926  .00029280  00000+0  12864-2 0  9995
2 66053  97.4619   5.1034 0014298 261.0547  98.9070 15.21777529  1123
2025-234B               
1 66054U 25234B   25296.59837934  .00009095  00000+0  40867-3 0  9999
2 66054  97.5057   2.2525 0014619 268.7380  91.2181 15.21282678   685
2025-234C               
1 66055U 25234C   25298.76943995  .00007133  00000+0  32205-3 0  9994
2 66055  97.4573   4.3806 0014228 259.3151 100.6483 15.21202189  1018
2025-234D               
1 66056U 25234D   25298.37480816  .00021892  00000+0  97766-3 0  9991
2 66056  97.4550   3.9880 0014263 258.7901 101.1731 15.21279805   948
2025-234E               
1 66057U 25234E   25295.15214147  .00007512  00000+0  33848-3 0  9991
2 66057  97.5441   0.7365 0022152 241.6098 118.2904 15.21126112   466
TJS-20                  
1 66142U 25238A   25297.02128061  .00007775  15255-5  89266-3 0  9997
2 66142  16.4249 273.2021 7763057 165.3209 248.2978  1.72601617    28
CZ-5 R/B                
1 66143U 25238B   25299.04890105  .00020888  99501-6  11116-2 0  9992
2 66143  16.4195 272.5568 7596617 165.5501 244.5316  1.92804715    65
